FLOCK 4BE-17            
1 60492U 24149AA  26187.19350154  .00016725  00000+0  41566-3 0  9998
2 60492  97.3764 270.7191 0003736 170.1374 189.9946 15.40377205105183
FLOCK 4BE-22            
1 60494U 24149AC  26187.15789070  .00017244  00000+0  40905-3 0  9992
2 60494  97.3725 270.9054 0004051 180.5739 179.5504 15.41780719105222
FLOCK 4BE-34            
1 60495U 24149AD  26187.17526066  .00017161  00000+0  40747-3 0  9991
2 60495  97.3776 271.7573 0003956 188.0848 172.0336 15.41753631105258
FLOCK 4BE-32            
1 60497U 24149AF  26187.19586855  .00020944  00000+0  47869-3 0  9992
2 60497  97.3711 271.3363 0004150 184.8833 175.2374 15.42857166105264
FLOCK 4BE-11            
1 60501U 24149AK  26187.18049709  .00019335  00000+0  43059-3 0  9998
2 60501  97.3690 271.5693 0004227 184.5947 175.5263 15.43648949105282
FLOCK 4BE-24            
1 60505U 24149AP  26187.16540370  .00022759  00000+0  50300-3 0  9991
2 60505  97.3706 271.8178 0004306 198.0211 162.0886 15.43842035105292
FLOCK 4BE-29            
1 60509U 24149AT  26187.16352006  .00040956  00000+0  87007-3 0  9995
2 60509  97.3804 273.3300 0002757 199.2737 160.8408 15.44900386105340
FLOCK 4BE-2             
1 60511U 24149AV  26187.18676494  .00067920  00000+0  10059-2 0  9992
2 60511  97.3823 275.0526 0004919 198.0045 162.1036 15.55035092105453
FLOCK 4BE-13            
1 60512U 24149AW  26187.16795320  .00015296  00000+0  35534-3 0  9996
2 60512  97.3714 271.7827 0004363 183.8275 176.2940 15.42434808105296
FLOCK 4BE-27            
1 60513U 24149AX  26187.16925043  .00010234  00000+0  30557-3 0  9991
2 60513  97.3820 269.0332 0003102 215.0339 145.0700 15.34803020105054
FLOCK 4BE-9             
1 60514U 24149AY  26187.18019434  .00016661  00000+0  40037-3 0  9996
2 60514  97.3785 271.6428 0002842 197.9503 162.1644 15.41402243105249
FLOCK 4BE-6             
1 60516U 24149BA  26187.15927673  .00015277  00000+0  38295-3 0  9993
2 60516  97.3779 270.9436 0003456 202.3512 157.7584 15.40136074105190
FLOCK 4BE-14            
1 60517U 24149BB  26187.19001496  .00018956  00000+0  45142-3 0  9990
2 60517  97.3686 271.1287 0004400 207.4092 152.6923 15.41642559105253
FLOCK 4BE-1             
1 60518U 24149BC  26187.18599024  .00019953  00000+0  44976-3 0  9991
2 60518  97.3772 272.4710 0004156 206.1703 153.9335 15.43283335105300
FLOCK 4BE-28            
1 60519U 24149BD  26186.78315901  .00032701  00000+0  67797-3 0  9999
2 60519  97.3743 272.8436 0003621 197.6576 162.4548 15.45662812105311
FLOCK 4BE-5             
1 60559U 24149CV  26187.18874208  .00017080  00000+0  41783-3 0  9998
2 60559  97.3836 271.3781 0003138 200.3833 159.7289 15.40854637105208
