{"fetched_at":"2026-07-06T18:35:16.154Z","source":"https://celestrak.org/NORAD/elements/gp.php?GROUP=planet&FORMAT=JSON","constellation":"superdove","records":[{"OBJECT_NAME":"FLOCK 4BE-17","OBJECT_ID":"2024-149AA","EPOCH":"2026-07-06T04:38:38.533056","CLASSIFICATION_TYPE":"U","MEAN_MOTION":15.40377205,"ECCENTRICITY":0.00037361,"INCLINATION":97.3764,"RA_OF_ASC_NODE":270.7191,"ARG_OF_PERICENTER":170.1374,"MEAN_ANOMALY":189.9946,"EPHEMERIS_TYPE":0,"NORAD_CAT_ID":60492,"ELEMENT_SET_NO":999,"REV_AT_EPOCH":10518,"BSTAR":0.00041566068,"MEAN_MOTION_DOT":0.00016725,"MEAN_MOTION_DDOT":0},{"OBJECT_NAME":"FLOCK 4BE-22","OBJECT_ID":"2024-149AC","EPOCH":"2026-07-06T03:47:21.756480","CLASSIFICATION_TYPE":"U","MEAN_MOTION":15.41780719,"ECCENTRICITY":0.00040519,"INCLINATION":97.3725,"RA_OF_ASC_NODE":270.9054,"ARG_OF_PERICENTER":180.5739,"MEAN_ANOMALY":179.5504,"EPHEMERIS_TYPE":0,"NORAD_CAT_ID":60494,"ELEMENT_SET_NO":999,"REV_AT_EPOCH":10522,"BSTAR":0.00040905348,"MEAN_MOTION_DOT":0.00017244,"MEAN_MOTION_DDOT":0},{"OBJECT_NAME":"FLOCK 4BE-34","OBJECT_ID":"2024-149AD","EPOCH":"2026-07-06T04:12:22.521024","CLASSIFICATION_TYPE":"U","MEAN_MOTION":15.41753631,"ECCENTRICITY":0.00039564,"INCLINATION":97.3776,"RA_OF_ASC_NODE":271.7573,"ARG_OF_PERICENTER":188.0848,"MEAN_ANOMALY":172.0336,"EPHEMERIS_TYPE":0,"NORAD_CAT_ID":60495,"ELEMENT_SET_NO":999,"REV_AT_EPOCH":10525,"BSTAR":0.00040746756,"MEAN_MOTION_DOT":0.00017161,"MEAN_MOTION_DDOT":0},{"OBJECT_NAME":"FLOCK 4BE-32","OBJECT_ID":"2024-149AF","EPOCH":"2026-07-06T04:42:03.042720","CLASSIFICATION_TYPE":"U","MEAN_MOTION":15.42857166,"ECCENTRICITY":0.000415,"INCLINATION":97.3711,"RA_OF_ASC_NODE":271.3363,"ARG_OF_PERICENTER":184.8833,"MEAN_ANOMALY":175.2374,"EPHEMERIS_TYPE":0,"NORAD_CAT_ID":60497,"ELEMENT_SET_NO":999,"REV_AT_EPOCH":10526,"BSTAR":0.0004786945,"MEAN_MOTION_DOT":0.00020944,"MEAN_MOTION_DDOT":0},{"OBJECT_NAME":"FLOCK 4BE-11","OBJECT_ID":"2024-149AK","EPOCH":"2026-07-06T04:19:54.948576","CLASSIFICATION_TYPE":"U","MEAN_MOTION":15.43648949,"ECCENTRICITY":0.00042272,"INCLINATION":97.369,"RA_OF_ASC_NODE":271.5693,"ARG_OF_PERICENTER":184.5947,"MEAN_ANOMALY":175.5263,"EPHEMERIS_TYPE":0,"NORAD_CAT_ID":60501,"ELEMENT_SET_NO":999,"REV_AT_EPOCH":10528,"BSTAR":0.00043058685,"MEAN_MOTION_DOT":0.00019335,"MEAN_MOTION_DDOT":0},{"OBJECT_NAME":"FLOCK 4BE-24","OBJECT_ID":"2024-149AP","EPOCH":"2026-07-06T03:58:10.879680","CLASSIFICATION_TYPE":"U","MEAN_MOTION":15.43842035,"ECCENTRICITY":0.00043069,"INCLINATION":97.3706,"RA_OF_ASC_NODE":271.8178,"ARG_OF_PERICENTER":198.0211,"MEAN_ANOMALY":162.0886,"EPHEMERIS_TYPE":0,"NORAD_CAT_ID":60505,"ELEMENT_SET_NO":999,"REV_AT_EPOCH":10529,"BSTAR":0.00050299659,"MEAN_MOTION_DOT":0.00022759,"MEAN_MOTION_DDOT":0},{"OBJECT_NAME":"FLOCK 4BE-29","OBJECT_ID":"2024-149AT","EPOCH":"2026-07-06T03:55:28.133184","CLASSIFICATION_TYPE":"U","MEAN_MOTION":15.44900386,"ECCENTRICITY":0.00027572,"INCLINATION":97.3804,"RA_OF_ASC_NODE":273.33,"ARG_OF_PERICENTER":199.2737,"MEAN_ANOMALY":160.8408,"EPHEMERIS_TYPE":0,"NORAD_CAT_ID":60509,"ELEMENT_SET_NO":999,"REV_AT_EPOCH":10534,"BSTAR":0.00087006791,"MEAN_MOTION_DOT":0.00040956,"MEAN_MOTION_DDOT":0},{"OBJECT_NAME":"FLOCK 4BE-2","OBJECT_ID":"2024-149AV","EPOCH":"2026-07-06T04:28:56.490816","CLASSIFICATION_TYPE":"U","MEAN_MOTION":15.55035092,"ECCENTRICITY":0.0004919,"INCLINATION":97.3823,"RA_OF_ASC_NODE":275.0526,"ARG_OF_PERICENTER":198.0045,"MEAN_ANOMALY":162.1036,"EPHEMERIS_TYPE":0,"NORAD_CAT_ID":60511,"ELEMENT_SET_NO":999,"REV_AT_EPOCH":10545,"BSTAR":0.0010058636,"MEAN_MOTION_DOT":0.0006792,"MEAN_MOTION_DDOT":0},{"OBJECT_NAME":"FLOCK 4BE-13","OBJECT_ID":"2024-149AW","EPOCH":"2026-07-06T04:01:51.156480","CLASSIFICATION_TYPE":"U","MEAN_MOTION":15.42434808,"ECCENTRICITY":0.00043637,"INCLINATION":97.3714,"RA_OF_ASC_NODE":271.7827,"ARG_OF_PERICENTER":183.8275,"MEAN_ANOMALY":176.294,"EPHEMERIS_TYPE":0,"NORAD_CAT_ID":60512,"ELEMENT_SET_NO":999,"REV_AT_EPOCH":10529,"BSTAR":0.00035533803,"MEAN_MOTION_DOT":0.00015296,"MEAN_MOTION_DDOT":0},{"OBJECT_NAME":"FLOCK 4BE-27","OBJECT_ID":"2024-149AX","EPOCH":"2026-07-06T04:03:43.237152","CLASSIFICATION_TYPE":"U","MEAN_MOTION":15.3480302,"ECCENTRICITY":0.00031021,"INCLINATION":97.382,"RA_OF_ASC_NODE":269.0332,"ARG_OF_PERICENTER":215.0339,"MEAN_ANOMALY":145.07,"EPHEMERIS_TYPE":0,"NORAD_CAT_ID":60513,"ELEMENT_SET_NO":999,"REV_AT_EPOCH":10505,"BSTAR":0.00030556762,"MEAN_MOTION_DOT":0.00010234,"MEAN_MOTION_DDOT":0},{"OBJECT_NAME":"FLOCK 4BE-9","OBJECT_ID":"2024-149AY","EPOCH":"2026-07-06T04:19:28.790976","CLASSIFICATION_TYPE":"U","MEAN_MOTION":15.41402243,"ECCENTRICITY":0.00028426,"INCLINATION":97.3785,"RA_OF_ASC_NODE":271.6428,"ARG_OF_PERICENTER":197.9503,"MEAN_ANOMALY":162.1644,"EPHEMERIS_TYPE":0,"NORAD_CAT_ID":60514,"ELEMENT_SET_NO":999,"REV_AT_EPOCH":10524,"BSTAR":0.00040037474,"MEAN_MOTION_DOT":0.00016661,"MEAN_MOTION_DDOT":0},{"OBJECT_NAME":"FLOCK 4BE-6","OBJECT_ID":"2024-149BA","EPOCH":"2026-07-06T03:49:21.509472","CLASSIFICATION_TYPE":"U","MEAN_MOTION":15.40136074,"ECCENTRICITY":0.00034569,"INCLINATION":97.3779,"RA_OF_ASC_NODE":270.9436,"ARG_OF_PERICENTER":202.3512,"MEAN_ANOMALY":157.7584,"EPHEMERIS_TYPE":0,"NORAD_CAT_ID":60516,"ELEMENT_SET_NO":999,"REV_AT_EPOCH":10519,"BSTAR":0.00038294889,"MEAN_MOTION_DOT":0.00015277,"MEAN_MOTION_DDOT":0},{"OBJECT_NAME":"FLOCK 4BE-14","OBJECT_ID":"2024-149BB","EPOCH":"2026-07-06T04:33:37.292544","CLASSIFICATION_TYPE":"U","MEAN_MOTION":15.41642559,"ECCENTRICITY":0.00044009,"INCLINATION":97.3686,"RA_OF_ASC_NODE":271.1287,"ARG_OF_PERICENTER":207.4092,"MEAN_ANOMALY":152.6923,"EPHEMERIS_TYPE":0,"NORAD_CAT_ID":60517,"ELEMENT_SET_NO":999,"REV_AT_EPOCH":10525,"BSTAR":0.00045141821,"MEAN_MOTION_DOT":0.00018956,"MEAN_MOTION_DDOT":0},{"OBJECT_NAME":"FLOCK 4BE-1","OBJECT_ID":"2024-149BC","EPOCH":"2026-07-06T04:27:49.556736","CLASSIFICATION_TYPE":"U","MEAN_MOTION":15.43283335,"ECCENTRICITY":0.00041566,"INCLINATION":97.3772,"RA_OF_ASC_NODE":272.471,"ARG_OF_PERICENTER":206.1703,"MEAN_ANOMALY":153.9335,"EPHEMERIS_TYPE":0,"NORAD_CAT_ID":60518,"ELEMENT_SET_NO":999,"REV_AT_EPOCH":10530,"BSTAR":0.0004497566,"MEAN_MOTION_DOT":0.00019953,"MEAN_MOTION_DDOT":0},{"OBJECT_NAME":"FLOCK 4BE-28","OBJECT_ID":"2024-149BD","EPOCH":"2026-07-05T18:47:44.938464","CLASSIFICATION_TYPE":"U","MEAN_MOTION":15.45662812,"ECCENTRICITY":0.00036217,"INCLINATION":97.3743,"RA_OF_ASC_NODE":272.8436,"ARG_OF_PERICENTER":197.6576,"MEAN_ANOMALY":162.4548,"EPHEMERIS_TYPE":0,"NORAD_CAT_ID":60519,"ELEMENT_SET_NO":999,"REV_AT_EPOCH":10531,"BSTAR":0.00067796699,"MEAN_MOTION_DOT":0.00032701,"MEAN_MOTION_DDOT":0},{"OBJECT_NAME":"FLOCK 4BE-5","OBJECT_ID":"2024-149CV","EPOCH":"2026-07-06T04:31:47.315712","CLASSIFICATION_TYPE":"U","MEAN_MOTION":15.40854637,"ECCENTRICITY":0.00031387,"INCLINATION":97.3836,"RA_OF_ASC_NODE":271.3781,"ARG_OF_PERICENTER":200.3833,"MEAN_ANOMALY":159.7289,"EPHEMERIS_TYPE":0,"NORAD_CAT_ID":60559,"ELEMENT_SET_NO":999,"REV_AT_EPOCH":10520,"BSTAR":0.00041782812,"MEAN_MOTION_DOT":0.0001708,"MEAN_MOTION_DDOT":0}]}
